#dP2023  8 16 12  0  0.00000000      96 __u+U ITR00 EXT  IAC
## 2275 302400.00000000   900.00000000 60172 0.5000000000000
+  118   C06C07C08C09C10C11C12C13C14C16C19C20C21C22C23C24C25
+        C26C27C28C29C30C32C33C34C35C36C37C38C39C40C41C42C43
+        C44C45C46E02E03E04E05E07E08E09E10E11E12E13E14E15E18
+        E19E21E24E25E26E27E30E31E33E34E36G01G02G03G04G05G06
+        G07G08G09G10G11G12G13G14G15G16G17G18G19G20G21G23G24
+        G25G26G27G28G29G30G31G32J02J03J04R01R02R03R04R05R07
+        R08R09R11R12R13R14R15R16R17R18R19R20R21R22R24R25  0
++         9  9 11  9  8 12 13 10  9  9  8  9 10  9  8  7  7
++         8  7  8  8  9  8  8  9  8  9  9  9  9  8  9  7  8
++         7 10  8  7  7  7  7  7  7  8  7  6  7  7  9  7  6
++         7  7  7  7  8  8  6  8  7  6  7  6  7  6 10  7  6
++         7  8  7  7  6  7  8  7  9  7  5  6  8  7  7  7  7
++         7  6  8  7  6  6  7  7 10  9  9  8  7  7  9  8  8
++         8  8  8  7  9  9  8  8  9  7  9  9  6  8 10  8  0
%c M  cc GPS ccc cccc cccc cccc cccc ccccc ccccc ccccc ccccc
%c cc cc ccc ccc cccc cccc cccc cccc ccccc ccccc ccccc ccccc
%f  0.0000000  0.000000000  0.00000000000  0.000000000000000
%f  0.0000000  0.000000000  0.00000000000  0.000000000000000
%i    0    0    0    0      0      0      0      0         0
%i    0    0    0    0      0      0      0      0         0
/* IAC                                ULTRA-RAPID PREDICTION
/* S/V CLOCKS ARE ALIGNED TO GNSS TIME                      
/* G:C1WC2W R:C1PC2P E:C1XC5X C:C2IC6I J:C1CC2S             
/* PCV:IGS20_2247 OL/AL:FES2004  NONE     YN ORB:CoN CLK:CoN
*  2023 08 17  2 45  0.00000000
PC06 -17154.551733  25674.467599 -28814.652249    903.139174
PC07 -10058.434444  40515.871358  -4904.321332     58.266970
PC08    916.938219  26290.516310  32989.219341    386.618475
PC09  -8180.029743  25261.237655 -32450.235318    283.082582
PC10  -4484.386819  41598.635277   1443.186284   -147.981283
PC11  -4331.324918  17829.736411  21082.135747    783.212781
PC12 -21130.519628  16638.927284   7443.945345    877.124813
PC13   6786.264261  29978.688722  29125.011174    335.605558
PC14    620.685443  27819.979456  -1616.554270    240.732177
PC16 -20192.758171  24837.360405 -27342.444102    -38.833769
PC19  -6774.910614 -24907.545863  10653.056090   -961.832238
PC20   4577.820417 -26885.244715  -5991.778788    355.841004
PC21 -14158.863476  12650.548789  20448.541314   -950.626730
PC22 -14822.637851  -8518.245367  22052.047300   -348.135084
PC23  24834.716356  12339.003876   3149.791703   -902.615630
PC24  -5072.296399  15847.879952 -22408.627495    292.012114
PC25  15218.362957  19468.184111 -12992.017538    191.046607
PC26 -20433.420658   3762.957899 -18624.837714   -164.306008
PC27  24827.773179 -12707.402075    840.067138    185.526562
PC28  22995.429162    125.540576  15819.227009    138.780817
PC29  -6885.140202 -14482.332929 -22845.489035    161.909214
PC30  13109.496422 -19719.349120 -14763.443385     -3.587244
PC32  14087.751517 -12689.753485 -20473.167390   -531.928127
PC33   6875.242341  24899.805260 -10538.756387   -939.312272
PC34 -11850.258380  19769.321620  15728.634006    238.809872
PC35 -22906.948340    466.914660 -15965.784533    566.199559
PC36 -14027.748135 -19911.314698  13642.303986   -272.643620
PC37  21118.885012  -2505.858781  18098.708753   -808.779123
PC38  -7780.211954  22993.393678  34517.082418     98.660560
PC39 -24881.195116  25187.879459 -23032.974024     -4.355367
PC40 -16207.731942  37872.957158  -8245.427034    -33.170468
PC41  14722.559011   9236.898453 -21784.521390   -887.620477
PC42  -5476.506402  26335.629510   7412.234554   -575.509746
PC43   6000.701151  15072.894803  22695.548673     35.595778
PC44 -24419.089946  13493.826989  -1070.057670    202.420160
PC45 -24891.594701 -12045.332703  -3653.962631    -14.861756
PC46   3687.336793 -16383.966896  22286.441065    -77.123262
PE02  -2646.585594 -26251.695136  13409.210398     56.070746
PE03   7459.967493 -26168.936324  11663.489178    -46.700679
PE04   8929.300500  16019.385118 -23229.004622   -191.063608
PE05  19609.690054 -21110.927872  -6791.066494      9.706070
PE07 -20161.209426   3332.737550  21413.468905    -67.930131
PE08  -8490.957345 -16305.016943  23201.067774   -131.505865
PE09  20014.057066  -3293.447355 -21564.160055   -123.096512
PE10  26297.985407   8352.775959  10722.246640   -556.669416
PE11  29524.019070   2037.409018    466.345814   2740.441055
PE12  19289.465698  12990.491727  18299.343477   -660.919741
PE13 -29471.117128  -2467.085790  -1220.491870    -19.446064
PE14 -12822.136620 -15562.907732 -23446.842069    313.449275
PE15 -18955.498278 -13056.706223 -18610.145605    -45.704170
PE18  19738.668634   -901.790603  17611.755669    422.248485
PE19  -9618.322650  26336.353534  -9484.830732  -1834.440634
PE21 -11455.980192  13570.434040 -23673.787074   -547.100271
PE24  19794.581964   8345.948064  20364.605094   -269.976835
PE25  11696.553151 -13229.526479  23767.078486     -0.369701
PE26 -22042.154990   9880.274520  17099.412197    194.984035
PE27 -19703.299151  -7625.071672 -20720.612734   -126.443066
PE30 -15974.277395 -24371.653209  -5174.597683   -424.047060
PE31  16268.925801  24083.889801   5621.470439     -2.848651
PE33  -3229.617385  15788.756453  24824.066236     -1.467697
PE34   2479.703814 -15871.283095 -24872.535168    -61.949783
PE36  22593.728917  -9421.278203 -16644.946752   -102.163039
PG01 -13801.769561 -13662.987639 -18616.330740    168.326304
PG02  -7021.145628 -14307.987195 -20773.147833   -564.635096
PG03 -12754.086762 -23223.907309   2448.248326   -183.463827
PG04  -6510.494257 -15310.144137  20686.424889    127.893797
PG05   3042.781823  23362.462903  11977.230747   -139.096469
PG06 -22794.400994   6058.575347  12366.881158    565.208544
PG07 -25308.765517  -6656.608185   6320.373363     93.676857
PG08   2224.363058 -22031.852162 -14442.886470   -137.549236
PG09 -14036.210268  -6316.257596  21567.565440    -84.674455
PG10  15148.109511  -1885.637526 -21593.952998    -49.584211
PG11 -10499.731678  13010.150847  20636.552115   -324.355997
PG12   8852.387696  25066.034488  -1231.504900   -413.788501
PG13 -11571.990632  21966.928650  -9316.812675    561.031479
PG14 -16792.467641  -1584.011773 -20530.998155    156.348944
PG15   1478.020791  22027.882084 -15064.232536     68.359904
PG16   3252.136284 -21249.140343  14988.762515   -467.235144
PG17 -19987.892581   9894.464178 -14071.291041    722.827644
PG18  25998.720457   4865.544266   3301.003124   -385.155054
PG19 -20215.705366  15050.643124  -8027.930540    358.686369
PG20  -4620.583575  17626.636502  19420.608143    416.832457
PG21  -4797.112829 -14719.407043 -21149.042942    150.603230
PG23  17972.863904  10983.088734 -16278.199287     56.036461
PG24   9645.964764  14892.237536 -20246.132374   -291.991890
PG25  16881.917198  17685.334698  10383.275659    462.586312
PG26  10290.439394 -12909.338496  20629.082812    232.636951
PG27  12045.751633 -23035.456179  -4489.589695    -23.341083
PG28  23723.925029  -6053.399385  10274.354223     75.458988
PG29  12921.679778   7588.912851  21886.417628   -607.902060
PG30 -26430.473942    369.935790  -3671.824360   -495.835183
PG31  16367.775460 -10980.682527  17814.545557   -221.956529
PG32  19231.475306 -13797.050145 -11667.662809   -541.910307
PJ02 -20900.419087  23289.362614 -23615.205381     -2.658840
PJ03 -30460.328315  26202.350118  17742.193027     -1.164586
PJ04 -26576.935290  29963.791960  19257.149454     70.489452
PR01  -1355.023147  24694.438524  -6227.785882     63.653156
PR02   6804.831506  13729.987673 -20373.235871    -22.520923
PR03  11640.392373  -4969.160016 -22094.443067     83.459965
PR04   9873.864501 -20412.863227 -11644.382844    198.997251
PR05   2907.875429 -24803.737553   5140.165783    117.453067
PR07 -11749.153095   5941.533963  21893.292414     62.606113
PR08  -9791.747853  20576.701359  11550.854325    -72.139736
PR09 -19624.628092 -16364.253641    -64.894664    137.108017
PR11  -8586.863797   7002.456934 -22961.325535   -134.526077
PR12   8393.324075  17724.038386 -16287.506803     30.260334
PR13  18692.613084  17242.055275  -1994.552549    -38.229018
PR14  18861.745004   5932.920126  16120.363636     25.091638
PR15   7609.973930  -8057.108913  22999.953464     86.947070
PR16  -8314.974973 -17520.599780  16606.588923     17.777832
PR17  24332.823622  -5230.611052   5708.448026      9.498303
PR18  20019.854159 -11443.828672 -10848.122569     97.150937
PR19   7336.848459 -11938.296191 -21320.882544   -243.767261
PR20 -14402.163678  -5333.346635 -20371.700979    -98.430544
PR21 -24430.920445   5614.993659  -4619.872193    -30.947159
PR22 -19711.695870  11252.951854  11670.315649    114.307256
PR24  15227.862931   4898.139330  19891.407831    -20.766252
PR25 -24514.090199   4031.251766  -5723.397908     42.266564
EOF
